{
"type": "FeatureCollection",
"name": "johnny_brown_water_valves",
"crs": { "type": "name", "properties": { "name": "urn:ogc:def:crs:OGC:1.3:CRS84" } },
"features": [
{ "type": "Feature", "properties": { "Number": 20, "Name": "NE Corner Lot 1", "Descriptio": "Johnny Brown", "GeometryTy": "Point", "Latitude": 37.42596055, "Longitude": -112.2026192, "Elevation": 2107.465, "GeoidOffse": -20.901 }, "geometry": { "type": "Point", "coordinates": [ -112.202619425438797, 37.425959577230849 ] } },
{ "type": "Feature", "properties": { "Number": 19, "Name": "White line valve in greenish 8‚Äù vert pipe", "Descriptio": "Johnny Brown", "GeometryTy": "Point", "Latitude": 37.42484587, "Longitude": -112.2027188, "Elevation": 2095.546, "GeoidOffse": -20.903 }, "geometry": { "type": "Point", "coordinates": [ -112.202719023802388, 37.424844899453326 ] } },
{ "type": "Feature", "properties": { "Number": 18, "Name": "SE 1 NE 2 corner post", "Descriptio": "Johnny Brown", "GeometryTy": "Point", "Latitude": 37.42415109, "Longitude": -112.2026321, "Elevation": 2092.079, "GeoidOffse": -20.904 }, "geometry": { "type": "Point", "coordinates": [ -112.202632322875402, 37.424150120755414 ] } },
{ "type": "Feature", "properties": { "Number": 17, "Name": "White Line Valve and frost free connection to Lot 2", "Descriptio": "Johnny Brown", "GeometryTy": "Point", "Latitude": 37.42411497, "Longitude": -112.2027509, "Elevation": 2091.676, "GeoidOffse": -20.904 }, "geometry": { "type": "Point", "coordinates": [ -112.20275112275074, 37.424114000892573 ] } },
{ "type": "Feature", "properties": { "Number": 16, "Name": "Black line shut off valve", "Descriptio": "Johnny Brown", "GeometryTy": "Point", "Latitude": 37.42375836, "Longitude": -112.2032098, "Elevation": 2088.626, "GeoidOffse": -20.905 }, "geometry": { "type": "Point", "coordinates": [ -112.203210021963983, 37.423757391845676 ] } },
{ "type": "Feature", "properties": { "Number": 15, "Name": "Black line cattle trough valve", "Descriptio": "Johnny Brown", "GeometryTy": "Point", "Latitude": 37.42477175, "Longitude": -112.2029179, "Elevation": 2093.306, "GeoidOffse": -20.903 }, "geometry": { "type": "Point", "coordinates": [ -112.202918123573511, 37.424770779708879 ] } },
{ "type": "Feature", "properties": { "Number": 14, "Name": "Black Line", "Descriptio": "Johnny Brown", "GeometryTy": "Point", "Latitude": 37.42503049, "Longitude": -112.203008, "Elevation": 2095.299, "GeoidOffse": -20.903 }, "geometry": { "type": "Point", "coordinates": [ -112.203008223882023, 37.42502951925578 ] } },
{ "type": "Feature", "properties": { "Number": 13, "Name": "Black Line", "Descriptio": "Johnny Brown", "GeometryTy": "Point", "Latitude": 37.42502973, "Longitude": -112.2030138, "Elevation": 2095.183, "GeoidOffse": -20.903 }, "geometry": { "type": "Point", "coordinates": [ -112.20301402387733, 37.425028759260499 ] } },
{ "type": "Feature", "properties": { "Number": 12, "Name": "South end of dual horizontal tanks", "Descriptio": "Johnny Brown", "GeometryTy": "Point", "Latitude": 37.42512065, "Longitude": -112.2030283, "Elevation": 2095.303, "GeoidOffse": -20.903 }, "geometry": { "type": "Point", "coordinates": [ -112.203028523996423, 37.425119679091615 ] } },
{ "type": "Feature", "properties": { "Number": 11, "Name": "Black Line Solar Panel", "Descriptio": "Johnny Brown", "GeometryTy": "Point", "Latitude": 37.42519523, "Longitude": -112.2030493, "Elevation": 2097.249, "GeoidOffse": -20.903 }, "geometry": { "type": "Point", "coordinates": [ -112.203049524088399, 37.4251942589582 ] } },
{ "type": "Feature", "properties": { "Number": 10, "Name": "Overflow", "Descriptio": "Johnny Brown", "GeometryTy": "Point", "Latitude": 37.42533126, "Longitude": -112.2028215, "Elevation": 2098.853, "GeoidOffse": -20.902 }, "geometry": { "type": "Point", "coordinates": [ -112.202821724423117, 37.425330288566656 ] } },
{ "type": "Feature", "properties": { "Number": 9, "Name": "Black Line riser", "Descriptio": "Johnny Brown", "GeometryTy": "Point", "Latitude": 37.42539686, "Longitude": -112.2026187, "Elevation": 2099.231, "GeoidOffse": -20.902 }, "geometry": { "type": "Point", "coordinates": [ -112.202618924643033, 37.425395888326271 ] } },
{ "type": "Feature", "properties": { "Number": 8, "Name": "Vertical Tank", "Descriptio": "Johnny Brown", "GeometryTy": "Point", "Latitude": 37.42588733, "Longitude": -112.2027268, "Elevation": 2105.278, "GeoidOffse": -20.901 }, "geometry": { "type": "Point", "coordinates": [ -112.202727025267464, 37.425886357432695 ] } }
]
}
