{
"type": "FeatureCollection",
"name": "lower_cabins_water_valves",
"crs": { "type": "name", "properties": { "name": "urn:ogc:def:crs:OGC:1.3:CRS84" } },
"features": [
{ "type": "Feature", "properties": { "Number": 55, "Name": "C10 shutoff", "Descriptio": "Lower Cabin System", "GeometryTy": "Point", "Latitude": 37.33258979, "Longitude": -112.224312, "Elevation": 1931.676, "GeoidOffse": -21.054 }, "geometry": { "type": "Point", "coordinates": [ -112.224312, 37.33258979 ] } },
{ "type": "Feature", "properties": { "Number": 54, "Name": "C6 Shutoff Valve", "Descriptio": "Lower Cabin System", "GeometryTy": "Point", "Latitude": 37.33237716, "Longitude": -112.2228716, "Elevation": 1931.592, "GeoidOffse": -21.054 }, "geometry": { "type": "Point", "coordinates": [ -112.2228716, 37.33237716 ] } },
{ "type": "Feature", "properties": { "Number": 53, "Name": "C7 Shutoff valve", "Descriptio": "Lower Cabin System", "GeometryTy": "Point", "Latitude": 37.33237129, "Longitude": -112.222866, "Elevation": 1931.225, "GeoidOffse": -21.054 }, "geometry": { "type": "Point", "coordinates": [ -112.222866, 37.33237129 ] } },
{ "type": "Feature", "properties": { "Number": 52, "Name": "C8 Shutoff", "Descriptio": "Lower Cabin System", "GeometryTy": "Point", "Latitude": 37.33189506, "Longitude": -112.2228803, "Elevation": 1929.309, "GeoidOffse": -21.054 }, "geometry": { "type": "Point", "coordinates": [ -112.2228803, 37.33189506 ] } },
{ "type": "Feature", "properties": { "Number": 50, "Name": "C9&10 shutoff valve", "Descriptio": "Lower Cabin System", "GeometryTy": "Point", "Latitude": 37.33225458, "Longitude": -112.2238199, "Elevation": 1924.134, "GeoidOffse": -21.055 }, "geometry": { "type": "Point", "coordinates": [ -112.2238199, 37.33225458 ] } },
{ "type": "Feature", "properties": { "Number": 49, "Name": "Blowout Valve", "Descriptio": "Lower Cabin System", "GeometryTy": "Point", "Latitude": 37.33056747, "Longitude": -112.2225963, "Elevation": 1899.105, "GeoidOffse": -21.056 }, "geometry": { "type": "Point", "coordinates": [ -112.2225963, 37.33056747 ] } },
{ "type": "Feature", "properties": { "Number": 48, "Name": "J station shutoff", "Descriptio": "Lower Cabin System", "GeometryTy": "Point", "Latitude": 37.33044183, "Longitude": -112.2225054, "Elevation": 1897.834, "GeoidOffse": -21.056 }, "geometry": { "type": "Point", "coordinates": [ -112.2225054, 37.33044183 ] } },
{ "type": "Feature", "properties": { "Number": 47, "Name": "Blowout valve #2", "Descriptio": "Lower Cabin System", "GeometryTy": "Point", "Latitude": 37.3304384, "Longitude": -112.2225008, "Elevation": 1898.631, "GeoidOffse": -21.056 }, "geometry": { "type": "Point", "coordinates": [ -112.2225008, 37.3304384 ] } },
{ "type": "Feature", "properties": { "Number": 46, "Name": "Playground hydrant shutoff", "Descriptio": "Lower Cabin System", "GeometryTy": "Point", "Latitude": 37.33052645, "Longitude": -112.2223753, "Elevation": 1898.329, "GeoidOffse": -21.056 }, "geometry": { "type": "Point", "coordinates": [ -112.2223753, 37.33052645 ] } },
{ "type": "Feature", "properties": { "Number": 45, "Name": "Restroom store shut off valve", "Descriptio": "Lower Cabin System", "GeometryTy": "Point", "Latitude": 37.33083645, "Longitude": -112.2221767, "Elevation": 1897.328, "GeoidOffse": -21.056 }, "geometry": { "type": "Point", "coordinates": [ -112.2221767, 37.33083645 ] } },
{ "type": "Feature", "properties": { "Number": 43, "Name": "Well", "Descriptio": "Lower Cabin System", "GeometryTy": "Point", "Latitude": 37.33536918, "Longitude": -112.2200367, "Elevation": 1913.443, "GeoidOffse": -21.047 }, "geometry": { "type": "Point", "coordinates": [ -112.2200367, 37.33536918 ] } },
{ "type": "Feature", "properties": { "Number": 42, "Name": "Well vault", "Descriptio": "Lower Cabin System", "GeometryTy": "Point", "Latitude": 37.33533062, "Longitude": -112.2200791, "Elevation": 1913.31, "GeoidOffse": -21.047 }, "geometry": { "type": "Point", "coordinates": [ -112.2200791, 37.33533062 ] } },
{ "type": "Feature", "properties": { "Number": 41, "Name": "Back flow for tire trough", "Descriptio": "Lower Cabin System", "GeometryTy": "Point", "Latitude": 37.33495302, "Longitude": -112.2203061, "Elevation": 1911.082, "GeoidOffse": -21.048 }, "geometry": { "type": "Point", "coordinates": [ -112.2203061, 37.33495302 ] } },
{ "type": "Feature", "properties": { "Number": 40, "Name": "Generator vault", "Descriptio": "Lower Cabin System", "GeometryTy": "Point", "Latitude": 37.33497007, "Longitude": -112.220305, "Elevation": 1910.273, "GeoidOffse": -21.048 }, "geometry": { "type": "Point", "coordinates": [ -112.220305, 37.33497007 ] } },
{ "type": "Feature", "properties": { "Number": 39, "Name": "1 inch  GC shutoff", "Descriptio": "Lower Cabin System", "GeometryTy": "Point", "Latitude": 37.33088951, "Longitude": -112.2219247, "Elevation": 1898.826, "GeoidOffse": -21.055 }, "geometry": { "type": "Point", "coordinates": [ -112.2219247, 37.33088951 ] } },
{ "type": "Feature", "properties": { "Number": 37, "Name": "1 inch valve RH and GC", "Descriptio": "Lower Cabin System", "GeometryTy": "Point", "Latitude": 37.33106523, "Longitude": -112.2223046, "Elevation": 1902.178, "GeoidOffse": -21.055 }, "geometry": { "type": "Point", "coordinates": [ -112.2223046, 37.33106523 ] } },
{ "type": "Feature", "properties": { "Number": 36, "Name": "1inch tee and valve", "Descriptio": "Lower Cabin System", "GeometryTy": "Point", "Latitude": 37.33102182, "Longitude": -112.2225285, "Elevation": 1902.911, "GeoidOffse": -21.055 }, "geometry": { "type": "Point", "coordinates": [ -112.2225285, 37.33102182 ] } },
{ "type": "Feature", "properties": { "Number": 35, "Name": "1inch tee", "Descriptio": "Lower Cabin System", "GeometryTy": "Point", "Latitude": 37.3309985, "Longitude": -112.2225925, "Elevation": 1903.171, "GeoidOffse": -21.056 }, "geometry": { "type": "Point", "coordinates": [ -112.2225925, 37.3309985 ] } },
{ "type": "Feature", "properties": { "Number": 34, "Name": "Blowout Valve Shutoff and 1inch valve shutoff", "Descriptio": "Lower Cabin System", "GeometryTy": "Point", "Latitude": 37.33093628, "Longitude": -112.222839, "Elevation": 1904.314, "GeoidOffse": -21.056 }, "geometry": { "type": "Point", "coordinates": [ -112.222839, 37.33093628 ] } },
{ "type": "Feature", "properties": { "Number": 33, "Name": "Corral valve 2", "Descriptio": "Lower Cabin System", "GeometryTy": "Point", "Latitude": 37.33087774, "Longitude": -112.2230929, "Elevation": 1901.516, "GeoidOffse": -21.056 }, "geometry": { "type": "Point", "coordinates": [ -112.2230929, 37.33087774 ] } },
{ "type": "Feature", "properties": { "Number": 32, "Name": "Corral valve", "Descriptio": "Lower Cabin System", "GeometryTy": "Point", "Latitude": 37.33087586, "Longitude": -112.2231373, "Elevation": 1899.617, "GeoidOffse": -21.056 }, "geometry": { "type": "Point", "coordinates": [ -112.2231373, 37.33087586 ] } },
{ "type": "Feature", "properties": { "Number": 31, "Name": "C6 Shutoff valve", "Descriptio": "Lower Cabin System", "GeometryTy": "Point", "Latitude": 37.33276494, "Longitude": -112.2228156, "Elevation": 1932.356, "GeoidOffse": -21.053 }, "geometry": { "type": "Point", "coordinates": [ -112.2228156, 37.33276494 ] } },
{ "type": "Feature", "properties": { "Number": 30, "Name": "Fire pit valve", "Descriptio": "Lower Cabin System", "GeometryTy": "Point", "Latitude": 37.33276793, "Longitude": -112.2232909, "Elevation": 1931.308, "GeoidOffse": -21.053 }, "geometry": { "type": "Point", "coordinates": [ -112.2232909, 37.33276793 ] } },
{ "type": "Feature", "properties": { "Number": 29, "Name": "PRV Vault", "Descriptio": "Lower Cabin System", "GeometryTy": "Point", "Latitude": 37.3331058, "Longitude": -112.2231774, "Elevation": 1934.965, "GeoidOffse": -21.053 }, "geometry": { "type": "Point", "coordinates": [ -112.2231774, 37.3331058 ] } },
{ "type": "Feature", "properties": { "Number": 28, "Name": "Skutumpah Vault", "Descriptio": "Lower Cabin System", "GeometryTy": "Point", "Latitude": 37.33624134, "Longitude": -112.2227273, "Elevation": 1946.116, "GeoidOffse": -21.048 }, "geometry": { "type": "Point", "coordinates": [ -112.2227273, 37.33624134 ] } },
{ "type": "Feature", "properties": { "Number": 27, "Name": "Waterline Skutumpah crossing (5‚Äô down)", "Descriptio": "Lower Cabin System", "GeometryTy": "Point", "Latitude": 37.33633191, "Longitude": -112.2228442, "Elevation": 1943.736, "GeoidOffse": -21.048 }, "geometry": { "type": "Point", "coordinates": [ -112.2228442, 37.33633191 ] } },
{ "type": "Feature", "properties": { "Number": 26, "Name": "Lot 147 meter", "Descriptio": "Lower Cabin System", "GeometryTy": "Point", "Latitude": 37.3475974, "Longitude": -112.2272108, "Elevation": 1978.808, "GeoidOffse": -21.034 }, "geometry": { "type": "Point", "coordinates": [ -112.2272108, 37.3475974 ] } },
{ "type": "Feature", "properties": { "Number": 25, "Name": "Lot 146 meter", "Descriptio": "Lower Cabin System", "GeometryTy": "Point", "Latitude": 37.3495165, "Longitude": -112.2271645, "Elevation": 1987.629, "GeoidOffse": -21.031 }, "geometry": { "type": "Point", "coordinates": [ -112.2271645, 37.3495165 ] } },
{ "type": "Feature", "properties": { "Number": 24, "Name": "Lot 144 meter", "Descriptio": "Lower Cabin System", "GeometryTy": "Point", "Latitude": 37.34976712, "Longitude": -112.2271691, "Elevation": 1988.862, "GeoidOffse": -21.031 }, "geometry": { "type": "Point", "coordinates": [ -112.2271691, 37.34976712 ] } },
{ "type": "Feature", "properties": { "Number": 23, "Name": "40k drain valve", "Descriptio": "Lower Cabin System", "GeometryTy": "Point", "Latitude": 37.350651, "Longitude": -112.2272184, "Elevation": 1993.116, "GeoidOffse": -21.03 }, "geometry": { "type": "Point", "coordinates": [ -112.2272184, 37.350651 ] } },
{ "type": "Feature", "properties": { "Number": 22, "Name": "Lot 143 Meter Connection", "Descriptio": "Lower Cabin System", "GeometryTy": "Point", "Latitude": 37.35049189, "Longitude": -112.2271608, "Elevation": 1991.278, "GeoidOffse": -21.03 }, "geometry": { "type": "Point", "coordinates": [ -112.2271608, 37.35049189 ] } },
{ "type": "Feature", "properties": { "Number": 21, "Name": "40k main shutoff", "Descriptio": "Lower Cabin System", "GeometryTy": "Point", "Latitude": 37.35052632, "Longitude": -112.2272082, "Elevation": 1991.83, "GeoidOffse": -21.03 }, "geometry": { "type": "Point", "coordinates": [ -112.2272082, 37.35052632 ] } }
]
}
