{
"type": "FeatureCollection",
"name": "upper_cabins_system",
"crs": { "type": "name", "properties": { "name": "urn:ogc:def:crs:OGC:1.3:CRS84" } },
"features": [
{ "type": "Feature", "properties": { "qc_id": 0, "id": null, "name": null, "length": null }, "geometry": { "type": "MultiLineString", "coordinates": [ [ [ -112.272504093136618, 37.401974029764851 ], [ -112.271883429750432, 37.402323372906658 ], [ -112.271770316866451, 37.402431780751755 ], [ -112.27157983259896, 37.402627469055894 ], [ -112.271441389271274, 37.402394861784096 ], [ -112.271268020883156, 37.402239803344521 ], [ -112.270825615566423, 37.402095734577195 ], [ -112.269997175303544, 37.402359328917086 ] ] ] } },
{ "type": "Feature", "properties": { "qc_id": 1, "id": null, "name": null, "length": null }, "geometry": { "type": "MultiLineString", "coordinates": [ [ [ -112.271928734791175, 37.402307497500466 ], [ -112.271610739458026, 37.402048854266653 ], [ -112.269434133609096, 37.401306376612403 ], [ -112.268520062834284, 37.401107361262014 ], [ -112.268152370130693, 37.400522399886043 ], [ -112.267878486889884, 37.400266575312884 ], [ -112.267302881152062, 37.399559316005458 ], [ -112.267224751551552, 37.399497998845192 ], [ -112.2667470852424, 37.399521733957521 ], [ -112.266515874332171, 37.399646903331387 ] ] ] } },
{ "type": "Feature", "properties": { "qc_id": 4, "id": null, "name": null, "length": null }, "geometry": { "type": "MultiLineString", "coordinates": [ [ [ -112.27157983259896, 37.402627469055894 ], [ -112.271620602022708, 37.402736496968366 ], [ -112.271762133290665, 37.402858027927962 ], [ -112.27189419309606, 37.40308730381112 ], [ -112.271876803443149, 37.403197212468037 ], [ -112.271876803443149, 37.403197212468037 ] ] ] } },
{ "type": "Feature", "properties": { "qc_id": 5, "id": null, "name": null, "length": null }, "geometry": { "type": "MultiLineString", "coordinates": [ [ [ -112.27157983259896, 37.402627469055894 ], [ -112.271502295577804, 37.402813287016833 ], [ -112.271454474401651, 37.403307675397343 ], [ -112.271365322287181, 37.403388496274665 ] ] ] } },
{ "type": "Feature", "properties": { "qc_id": 6, "id": null, "name": null, "length": null }, "geometry": { "type": "MultiLineString", "coordinates": [ [ [ -112.271365322287181, 37.403388496274665 ], [ -112.271376496463958, 37.403631996691253 ] ] ] } },
{ "type": "Feature", "properties": { "qc_id": 7, "id": null, "name": null, "length": null }, "geometry": { "type": "MultiLineString", "coordinates": [ [ [ -112.271365322287181, 37.403388496274665 ], [ -112.271141828010343, 37.40339900089203 ], [ -112.270859358222737, 37.403661197979481 ] ] ] } }
]
}
